[{"OBJECT_NAME":"ISS (ZARYA)","OBJECT_ID":"1998-067A","EPOCH":"2026-07-08T17:37:14.092032","MEAN_MOTION":15.48947664,"ECCENTRICITY":0.00066697,"INCLINATION":51.6304,"RA_OF_ASC_NODE":193.4497,"ARG_OF_PERICENTER":272.1743,"MEAN_ANOMALY":87.8481,"EPHEMERIS_TYPE":0,"CLASSIFICATION_TYPE":"U","NORAD_CAT_ID":25544,"ELEMENT_SET_NO":999,"REV_AT_EPOCH":57509,"BSTAR":0.00010370434,"MEAN_MOTION_DOT":5.258e-5,"MEAN_MOTION_DDOT":0}]
